{
  "norad_id": 57632,
  "name": "STARLINK-30309",
  "history": [
    {
      "epoch": "2026-03-28T10:42:17.313408Z",
      "apogee_km": 484.1202818757092,
      "perigee_km": 481.9883725065247,
      "latitude_deg": 4.848655565977818e-05,
      "longitude_deg": 0.303745853403232,
      "height_km": 482.97488439487216,
      "semi_major_axis_km": 6861.191327191117,
      "eccentricity": 0.00015536,
      "inclination_deg": 43.0055,
      "raan_deg": 346.7422,
      "arg_perigee_deg": 262.2821,
      "mean_anomaly_deg": 97.7855,
      "mean_motion_rev_day": 15.27578253
    },
    {
      "epoch": "2026-03-29T02:23:51.882720Z",
      "apogee_km": 484.23109836623826,
      "perigee_km": 481.91063786524137,
      "latitude_deg": -6.098646409790611e-05,
      "longitude_deg": 120.57180418494191,
      "height_km": 483.10869095760285,
      "semi_major_axis_km": 6861.20786811574,
      "eccentricity": 0.0001691,
      "inclination_deg": 43.0048,
      "raan_deg": 343.0489,
      "arg_perigee_deg": 257.0294,
      "mean_anomaly_deg": 103.0368,
      "mean_motion_rev_day": 15.27572729
    },
    {
      "epoch": "2026-03-30T01:56:12.988896Z",
      "apogee_km": 484.01490425410793,
      "perigee_km": 482.10515867237064,
      "latitude_deg": -2.6976976225327424e-05,
      "longitude_deg": 120.97797816157833,
      "height_km": 483.1723451450531,
      "semi_major_axis_km": 6861.197031463239,
      "eccentricity": 0.00013917,
      "inclination_deg": 43.0031,
      "raan_deg": 337.5097,
      "arg_perigee_deg": 249.4367,
      "mean_anomaly_deg": 110.6335,
      "mean_motion_rev_day": 15.27576348
    },
    {
      "epoch": "2026-03-30T09:46:59.951712Z",
      "apogee_km": 483.7778433233734,
      "perigee_km": 482.33726691458105,
      "latitude_deg": 7.85462170786947e-06,
      "longitude_deg": 1.1142979635460135,
      "height_km": 482.9799623521138,
      "semi_major_axis_km": 6861.194555118977,
      "eccentricity": 0.00010498,
      "inclination_deg": 43.0051,
      "raan_deg": 335.6639,
      "arg_perigee_deg": 258.3479,
      "mean_anomaly_deg": 101.7255,
      "mean_motion_rev_day": 15.27577175
    },
    {
      "epoch": "2026-03-30T17:37:46.516224Z",
      "apogee_km": 484.3749621499728,
      "perigee_km": 481.75274840710244,
      "latitude_deg": -8.53569193094629e-06,
      "longitude_deg": -118.74867270783064,
      "height_km": 483.033889087999,
      "semi_major_axis_km": 6861.200855278537,
      "eccentricity": 0.00019109,
      "inclination_deg": 43.0063,
      "raan_deg": 333.8172,
      "arg_perigee_deg": 261.5675,
      "mean_anomaly_deg": 98.496,
      "mean_motion_rev_day": 15.27575071
    },
    {
      "epoch": "2026-03-31T18:44:17.659680Z",
      "apogee_km": 484.0396472355915,
      "perigee_km": 482.1528080979833,
      "latitude_deg": -2.507767590286261e-05,
      "longitude_deg": -142.31712899810012,
      "height_km": 482.9282005785825,
      "semi_major_axis_km": 6861.233227666788,
      "eccentricity": 0.0001375,
      "inclination_deg": 43.0039,
      "raan_deg": 327.9097,
      "arg_perigee_deg": 266.6662,
      "mean_anomaly_deg": 93.4032,
      "mean_motion_rev_day": 15.2756426
    },
    {
      "epoch": "2026-04-01T19:50:47.769792Z",
      "apogee_km": 484.0780612751132,
      "perigee_km": 482.08693537670024,
      "latitude_deg": 8.824205704894496e-06,
      "longitude_deg": -165.8816141865865,
      "height_km": 482.9348071136476,
      "semi_major_axis_km": 6861.219498325907,
      "eccentricity": 0.0001451,
      "inclination_deg": 43.004,
      "raan_deg": 322.0018,
      "arg_perigee_deg": 265.6719,
      "mean_anomaly_deg": 94.3967,
      "mean_motion_rev_day": 15.27568845
    },
    {
      "epoch": "2026-04-02T19:23:07.653408Z",
      "apogee_km": 484.1771744413618,
      "perigee_km": 481.9047522998926,
      "latitude_deg": 6.63054342828491e-06,
      "longitude_deg": -165.4704706365542,
      "height_km": 482.83515494025085,
      "semi_major_axis_km": 6861.1779633706265,
      "eccentricity": 0.0001656,
      "inclination_deg": 43.0029,
      "raan_deg": 316.4625,
      "arg_perigee_deg": 269.1446,
      "mean_anomaly_deg": 90.9216,
      "mean_motion_rev_day": 15.27582716
    },
    {
      "epoch": "2026-04-02T22:31:26.204736Z",
      "apogee_km": 484.1453596353722,
      "perigee_km": 481.8939396923506,
      "latitude_deg": 2.0782563892676387e-05,
      "longitude_deg": 146.5848542857704,
      "height_km": 482.8241476563573,
      "semi_major_axis_km": 6861.156649663861,
      "eccentricity": 0.00016407,
      "inclination_deg": 43.003,
      "raan_deg": 315.724,
      "arg_perigee_deg": 268.6117,
      "mean_anomaly_deg": 91.4547,
      "mean_motion_rev_day": 15.27589834
    },
    {
      "epoch": "2026-04-03T07:56:21.768000Z",
      "apogee_km": 484.0753411727119,
      "perigee_km": 481.83135296379896,
      "latitude_deg": 2.2516437416806107e-05,
      "longitude_deg": 2.7507644085691183,
      "height_km": 482.803443970458,
      "semi_major_axis_km": 6861.090347068255,
      "eccentricity": 0.00016353,
      "inclination_deg": 43.0029,
      "raan_deg": 313.5081,
      "arg_perigee_deg": 266.2747,
      "mean_anomaly_deg": 93.7918,
      "mean_motion_rev_day": 15.27611977
    },
    {
      "epoch": "2026-04-04T07:28:43.255200Z",
      "apogee_km": 484.36640068697034,
      "perigee_km": 481.74624818023676,
      "latitude_deg": -3.1567494863180454e-05,
      "longitude_deg": 3.1554516084511373,
      "height_km": 483.03440562506233,
      "semi_major_axis_km": 6861.193324433603,
      "eccentricity": 0.00019094,
      "inclination_deg": 43.0029,
      "raan_deg": 307.9691,
      "arg_perigee_deg": 261.188,
      "mean_anomaly_deg": 98.8755,
      "mean_motion_rev_day": 15.27577586
    },
    {
      "epoch": "2026-04-05T14:51:52.054272Z",
      "apogee_km": 484.2387445263694,
      "perigee_km": 481.9031893344272,
      "latitude_deg": -1.6920330344973294e-05,
      "longitude_deg": -116.30656541715807,
      "height_km": 483.03812926910865,
      "semi_major_axis_km": 6861.2079669303985,
      "eccentricity": 0.0001702,
      "inclination_deg": 43.0036,
      "raan_deg": 300.5827,
      "arg_perigee_deg": 260.6433,
      "mean_anomaly_deg": 99.4226,
      "mean_motion_rev_day": 15.27572696
    },
    {
      "epoch": "2026-04-06T06:33:25.632576Z",
      "apogee_km": 484.09077127978526,
      "perigee_km": 481.96820081566057,
      "latitude_deg": -2.20648684364673e-05,
      "longitude_deg": 3.965243463987588,
      "height_km": 483.0541642415488,
      "semi_major_axis_km": 6861.166486047722,
      "eccentricity": 0.00015468,
      "inclination_deg": 43.0019,
      "raan_deg": 296.8889,
      "arg_perigee_deg": 256.5022,
      "mean_anomaly_deg": 103.5657,
      "mean_motion_rev_day": 15.27586549
    },
    {
      "epoch": "2026-04-07T13:56:33.222912Z",
      "apogee_km": 484.15118850689396,
      "perigee_km": 481.94600345634626,
      "latitude_deg": -2.421800405772952e-05,
      "longitude_deg": -115.48874302801323,
      "height_km": 482.9795894391977,
      "semi_major_axis_km": 6861.18559598162,
      "eccentricity": 0.0001607,
      "inclination_deg": 43.0051,
      "raan_deg": 289.5055,
      "arg_perigee_deg": 261.9929,
      "mean_anomaly_deg": 98.074,
      "mean_motion_rev_day": 15.27580167
    },
    {
      "epoch": "2026-04-07T13:56:33.223776Z",
      "apogee_km": 484.15146295431896,
      "perigee_km": 481.94572900892217,
      "latitude_deg": 4.7511054689074503e-05,
      "longitude_deg": -115.48867015655297,
      "height_km": 482.97961876435545,
      "semi_major_axis_km": 6861.18559598162,
      "eccentricity": 0.00016074,
      "inclination_deg": 43.0051,
      "raan_deg": 289.5055,
      "arg_perigee_deg": 261.993,
      "mean_anomaly_deg": 98.074,
      "mean_motion_rev_day": 15.27580167
    },
    {
      "epoch": "2026-04-08T13:28:54.264288Z",
      "apogee_km": 484.14876594338784,
      "perigee_km": 481.9574390484522,
      "latitude_deg": 1.8956888463939077e-06,
      "longitude_deg": -115.08251024377182,
      "height_km": 482.8893754288543,
      "semi_major_axis_km": 6861.19010249592,
      "eccentricity": 0.00015969,
      "inclination_deg": 43.0059,
      "raan_deg": 283.9661,
      "arg_perigee_deg": 266.9256,
      "mean_anomaly_deg": 93.1413,
      "mean_motion_rev_day": 15.27578662
    },
    {
      "epoch": "2026-04-09T19:17:52.474848Z",
      "apogee_km": 484.0819760817403,
      "perigee_km": 482.03459540847325,
      "latitude_deg": -2.127326533369772e-05,
      "longitude_deg": 149.43311078496257,
      "height_km": 482.92132048925123,
      "semi_major_axis_km": 6861.195285745106,
      "eccentricity": 0.0001492,
      "inclination_deg": 43.0043,
      "raan_deg": 276.9488,
      "arg_perigee_deg": 265.1926,
      "mean_anomaly_deg": 94.8755,
      "mean_motion_rev_day": 15.27576931
    },
    {
      "epoch": "2026-04-10T04:42:48.693024Z",
      "apogee_km": 484.0394037032529,
      "perigee_km": 482.05871651142024,
      "latitude_deg": -1.828711328447219e-05,
      "longitude_deg": 5.596084915195189,
      "height_km": 482.93413838607313,
      "semi_major_axis_km": 6861.186060107336,
      "eccentricity": 0.00014434,
      "inclination_deg": 43.0042,
      "raan_deg": 274.7327,
      "arg_perigee_deg": 263.7455,
      "mean_anomaly_deg": 96.3232,
      "mean_motion_rev_day": 15.27580012
    },
    {
      "epoch": "2026-04-11T19:56:43.170144Z",
      "apogee_km": 484.0531521195089,
      "perigee_km": 481.8699505604727,
      "latitude_deg": -2.9741091724076097e-05,
      "longitude_deg": 126.27848874882793,
      "height_km": 482.7038774295348,
      "semi_major_axis_km": 6861.09855133999,
      "eccentricity": 0.0001591,
      "inclination_deg": 43.0035,
      "raan_deg": 265.5033,
      "arg_perigee_deg": 271.8335,
      "mean_anomaly_deg": 88.2334,
      "mean_motion_rev_day": 15.27609237
    }
  ]
}